start=new Date('2023-06-26T00:00:00.000Z').valueOf();
sats=[{"SEMIMAJOR_AXIS":"6917.879","TIME_SYSTEM":"UTC","OBJECT_ID":"2022-097AC","FILE":"3942522","TLE_LINE1":"1 53414U 22097AC  23176.39303926  .00000045  00000-0  20941-4 0  9990","NORAD_CAT_ID":"53414","GP_ID":"234546140","RA_OF_ASC_NODE":"230.7604","ELEMENT_SET_NO":"999","MEAN_MOTION_DDOT":"0.0000000000000","MEAN_ANOMALY":"265.3509","ARG_OF_PERICENTER":"94.7620","DECAY_DATE":null,"PERIAPSIS":"538.911","LAUNCH_DATE":"2022-08-10","INCLINATION":"53.2151","BSTAR":"0.00002094100000","REV_AT_EPOCH":"4896","OBJECT_NAME":"STARLINK-4304","RCS_SIZE":"LARGE","CLASSIFICATION_TYPE":"U","CENTER_NAME":"EARTH","PERIOD":"95.438","REF_FRAME":"TEME","MEAN_MOTION_DOT":"0.00000045","SITE":"AFETR","ECCENTRICITY":"0.00012050","COUNTRY_CODE":"US","EPHEMERIS_TYPE":"0","MEAN_MOTION":"15.08840295","MEAN_ELEMENT_THEORY":"SGP4","EPOCH":"2023-06-25T09:25:58.592064","TLE_LINE2":"2 53414  53.2151 230.7604 0001205  94.7620 265.3509 15.08840295 48963","OBJECT_TYPE":"PAYLOAD","APOAPSIS":"540.578"},{"MEAN_ANOMALY":"268.5983","ARG_OF_PERICENTER":"91.5121","DECAY_DATE":null,"PERIAPSIS":"539.046","LAUNCH_DATE":"2022-08-10","RA_OF_ASC_NODE":"230.7716","ELEMENT_SET_NO":"999","MEAN_MOTION_DDOT":"0.0000000000000","TLE_LINE1":"1 53415U 22097AD  23176.38935275  .00002313  00000-0  16335-3 0  9999","NORAD_CAT_ID":"53415","GP_ID":"234546603","SEMIMAJOR_AXIS":"6917.860","TIME_SYSTEM":"UTC","OBJECT_ID":"2022-097AD","FILE":"3942521","MEAN_ELEMENT_THEORY":"SGP4","EPOCH":"2023-06-25T09:20:40.077600","TLE_LINE2":"2 53415  53.2147 230.7716 0000981  91.5121 268.5983 15.08846790 48961","OBJECT_TYPE":"PAYLOAD","APOAPSIS":"540.403","CENTER_NAME":"EARTH","PERIOD":"95.437","REF_FRAME":"TEME","MEAN_MOTION_DOT":"0.00002313","ECCENTRICITY":"0.00009810","SITE":"AFETR","COUNTRY_CODE":"US","EPHEMERIS_TYPE":"0","MEAN_MOTION":"15.08846790","RCS_SIZE":"LARGE","CLASSIFICATION_TYPE":"U","BSTAR":"0.00016335000000","INCLINATION":"53.2147","REV_AT_EPOCH":"4896","OBJECT_NAME":"STARLINK-4479"},{"MEAN_MOTION":"15.08846015","EPHEMERIS_TYPE":"0","COUNTRY_CODE":"US","ECCENTRICITY":"0.00010790","SITE":"AFETR","MEAN_MOTION_DOT":"0.00001937","REF_FRAME":"TEME","PERIOD":"95.437","CENTER_NAME":"EARTH","APOAPSIS":"540.473","TLE_LINE2":"2 53416  53.2148 230.4909 0001079  85.2163 274.8953 15.08846015 48977","OBJECT_TYPE":"PAYLOAD","EPOCH":"2023-06-25T10:34:50.945952","MEAN_ELEMENT_THEORY":"SGP4","OBJECT_NAME":"STARLINK-4480","REV_AT_EPOCH":"4897","INCLINATION":"53.2148","BSTAR":"0.00013971000000","CLASSIFICATION_TYPE":"U","RCS_SIZE":"LARGE","MEAN_MOTION_DDOT":"0.0000000000000","ELEMENT_SET_NO":"999","RA_OF_ASC_NODE":"230.4909","LAUNCH_DATE":"2022-08-10","PERIAPSIS":"538.981","DECAY_DATE":null,"ARG_OF_PERICENTER":"85.2163","MEAN_ANOMALY":"274.8953","FILE":"3942521","OBJECT_ID":"2022-097AE","TIME_SYSTEM":"UTC","SEMIMAJOR_AXIS":"6917.862","GP_ID":"234546108","NORAD_CAT_ID":"53416","TLE_LINE1":"1 53416U 22097AE  23176.44086743  .00001937  00000-0  13971-3 0  9998"},{"SEMIMAJOR_AXIS":"6917.876","TIME_SYSTEM":"UTC","OBJECT_ID":"2022-097AF","FILE":"3941921","TLE_LINE1":"1 53417U 22097AF  23175.59079567  .00000681  00000-0  60872-4 0  9998","NORAD_CAT_ID":"53417","GP_ID":"234532554","RA_OF_ASC_NODE":"234.3593","ELEMENT_SET_NO":"999","MEAN_MOTION_DDOT":"0.0000000000000","MEAN_ANOMALY":"281.6987","DECAY_DATE":null,"PERIAPSIS":"539.159","ARG_OF_PERICENTER":"78.4100","LAUNCH_DATE":"2022-08-10","BSTAR":"0.00006087200000","INCLINATION":"53.2145","OBJECT_NAME":"STARLINK-4484","REV_AT_EPOCH":"4884","RCS_SIZE":"LARGE","CLASSIFICATION_TYPE":"U","CENTER_NAME":"EARTH","REF_FRAME":"TEME","MEAN_MOTION_DOT":"0.00000681","PERIOD":"95.437","COUNTRY_CODE":"US","SITE":"AFETR","ECCENTRICITY":"0.00008410","MEAN_MOTION":"15.08841413","EPHEMERIS_TYPE":"0","EPOCH":"2023-06-24T14:10:44.745888","MEAN_ELEMENT_THEORY":"SGP4","OBJECT_TYPE":"PAYLOAD","TLE_LINE2":"2 53417  53.2145 234.3593 0000841  78.4100 281.6987 15.08841413 48844","APOAPSIS":"540.323"},{"TLE_LINE1":"1 53418U 22097AG  23176.41229243  .00002412  00000-0  16951-3 0  9991","GP_ID":"234546605","NORAD_CAT_ID":"53418","TIME_SYSTEM":"UTC","SEMIMAJOR_AXIS":"6917.843","FILE":"3942521","OBJECT_ID":"2022-097AG","MEAN_ANOMALY":"279.0801","LAUNCH_DATE":"2022-08-10","ARG_OF_PERICENTER":"81.0289","DECAY_DATE":null,"PERIAPSIS":"539.106","RA_OF_ASC_NODE":"220.2325","MEAN_MOTION_DDOT":"0.0000000000000","ELEMENT_SET_NO":"999","RCS_SIZE":"LARGE","CLASSIFICATION_TYPE":"U","INCLINATION":"53.2149","BSTAR":"0.00016951000000","REV_AT_EPOCH":"4911","OBJECT_NAME":"STARLINK-4481","MEAN_ELEMENT_THEORY":"SGP4","EPOCH":"2023-06-25T09:53:42.065952","APOAPSIS":"540.311","OBJECT_TYPE":"PAYLOAD","TLE_LINE2":"2 53418  53.2149 220.2325 0000871  81.0289 279.0801 15.08852092 49119","PERIOD":"95.437","REF_FRAME":"TEME","MEAN_MOTION_DOT":"0.00002412","CENTER_NAME":"EARTH","EPHEMERIS_TYPE":"0","MEAN_MOTION":"15.08852092","ECCENTRICITY":"0.00008710","SITE":"AFETR","COUNTRY_CODE":"US"},{"PERIOD":"95.437","MEAN_MOTION_DOT":"0.00003418","REF_FRAME":"TEME","CENTER_NAME":"EARTH","EPHEMERIS_TYPE":"0","MEAN_MOTION":"15.08850275","ECCENTRICITY":"0.00010090","SITE":"AFETR","COUNTRY_CODE":"US","MEAN_ELEMENT_THEORY":"SGP4","EPOCH":"2023-06-25T15:31:36.691680","APOAPSIS":"540.412","OBJECT_TYPE":"PAYLOAD","TLE_LINE2":"2 53419  53.2149 229.6145 0001009  80.8696 279.2410 15.08850275 49003","BSTAR":"0.00023264000000","INCLINATION":"53.2149","REV_AT_EPOCH":"4900","OBJECT_NAME":"STARLINK-4476","RCS_SIZE":"LARGE","CLASSIFICATION_TYPE":"U","RA_OF_ASC_NODE":"229.6145","MEAN_MOTION_DDOT":"0.0000000000000","ELEMENT_SET_NO":"999","MEAN_ANOMALY":"279.2410","LAUNCH_DATE":"2022-08-10","ARG_OF_PERICENTER":"80.8696","DECAY_DATE":null,"PERIAPSIS":"539.016","TIME_SYSTEM":"UTC","SEMIMAJOR_AXIS":"6917.849","FILE":"3942790","OBJECT_ID":"2022-097AH","TLE_LINE1":"1 53419U 22097AH  23176.64695245  .00003418  00000-0  23264-3 0  9998","NORAD_CAT_ID":"53419","GP_ID":"234553240"},{"RA_OF_ASC_NODE":"230.5573","ELEMENT_SET_NO":"999","MEAN_MOTION_DDOT":"0.0000000000000","MEAN_ANOMALY":"279.6041","ARG_OF_PERICENTER":"80.5063","PERIAPSIS":"539.034","DECAY_DATE":null,"LAUNCH_DATE":"2022-08-10","SEMIMAJOR_AXIS":"6917.858","TIME_SYSTEM":"UTC","OBJECT_ID":"2022-097AJ","FILE":"3942521","TLE_LINE1":"1 53420U 22097AJ  23176.43719350  .00001872  00000-0  13565-3 0  9996","NORAD_CAT_ID":"53420","GP_ID":"234546115","CENTER_NAME":"EARTH","PERIOD":"95.437","MEAN_MOTION_DOT":"0.00001872","REF_FRAME":"TEME","SITE":"AFETR","ECCENTRICITY":"0.00009960","COUNTRY_CODE":"US","EPHEMERIS_TYPE":"0","MEAN_MOTION":"15.08847205","MEAN_ELEMENT_THEORY":"SGP4","EPOCH":"2023-06-25T10:29:33.518400","TLE_LINE2":"2 53420  53.2150 230.5573 0000996  80.5063 279.6041 15.08847205 48970","OBJECT_TYPE":"PAYLOAD","APOAPSIS":"540.412","BSTAR":"0.00013565000000","INCLINATION":"53.2150","REV_AT_EPOCH":"4897","OBJECT_NAME":"STARLINK-4552","RCS_SIZE":"LARGE","CLASSIFICATION_TYPE":"U"},{"TLE_LINE2":"2 53421  53.2145 229.9281 0001000  76.8863 283.2240 15.08849897 48999","OBJECT_TYPE":"PAYLOAD","APOAPSIS":"540.407","MEAN_ELEMENT_THEORY":"SGP4","EPOCH":"2023-06-25T13:50:55.546656","SITE":"AFETR","ECCENTRICITY":"0.00010000","COUNTRY_CODE":"US","EPHEMERIS_TYPE":"0","MEAN_MOTION":"15.08849897","CENTER_NAME":"EARTH","PERIOD":"95.437","REF_FRAME":"TEME","MEAN_MOTION_DOT":"0.00001532","CLASSIFICATION_TYPE":"U","RCS_SIZE":"LARGE","REV_AT_EPOCH":"4899","OBJECT_NAME":"STARLINK-4545","INCLINATION":"53.2145","BSTAR":"0.00011429000000","ARG_OF_PERICENTER":"76.8863","DECAY_DATE":null,"PERIAPSIS":"539.023","LAUNCH_DATE":"2022-08-10","MEAN_ANOMALY":"283.2240","ELEMENT_SET_NO":"999","MEAN_MOTION_DDOT":"0.0000000000000","RA_OF_ASC_NODE":"229.9281","NORAD_CAT_ID":"53421","GP_ID":"234553249","TLE_LINE1":"1 53421U 22097AK  23176.57703179  .00001532  00000-0  11429-3 0  9994","OBJECT_ID":"2022-097AK","FILE":"3942790","SEMIMAJOR_AXIS":"6917.850","TIME_SYSTEM":"UTC"},{"BSTAR":"0.00025886000000","INCLINATION":"53.2146","REV_AT_EPOCH":"4897","OBJECT_NAME":"STARLINK-4546","RCS_SIZE":"LARGE","CLASSIFICATION_TYPE":"U","CENTER_NAME":"EARTH","PERIOD":"95.437","MEAN_MOTION_DOT":"0.00003835","REF_FRAME":"TEME","ECCENTRICITY":"0.00009710","SITE":"AFETR","COUNTRY_CODE":"US","EPHEMERIS_TYPE":"0","MEAN_MOTION":"15.08843380","MEAN_ELEMENT_THEORY":"SGP4","EPOCH":"2023-06-25T10:18:57.873600","TLE_LINE2":"2 53422  53.2146 230.5902 0000971  83.6154 276.4949 15.08843380 48973","OBJECT_TYPE":"PAYLOAD","APOAPSIS":"540.407","SEMIMAJOR_AXIS":"6917.870","TIME_SYSTEM":"UTC","OBJECT_ID":"2022-097AL","FILE":"3942521","TLE_LINE1":"1 53422U 22097AL  23176.42983650  .00003835  00000-0  25886-3 0  9993","NORAD_CAT_ID":"53422","GP_ID":"234546610","RA_OF_ASC_NODE":"230.5902","ELEMENT_SET_NO":"999","MEAN_MOTION_DDOT":"0.0000000000000","MEAN_ANOMALY":"276.4949","ARG_OF_PERICENTER":"83.6154","PERIAPSIS":"539.063","DECAY_DATE":null,"LAUNCH_DATE":"2022-08-10"},{"MEAN_MOTION_DDOT":"0.0000000000000","ELEMENT_SET_NO":"999","RA_OF_ASC_NODE":"230.5464","LAUNCH_DATE":"2022-08-10","ARG_OF_PERICENTER":"84.4223","PERIAPSIS":"539.025","DECAY_DATE":null,"MEAN_ANOMALY":"275.6883","FILE":"3942521","OBJECT_ID":"2022-097AM","TIME_SYSTEM":"UTC","SEMIMAJOR_AXIS":"6917.853","GP_ID":"234546615","NORAD_CAT_ID":"53423","TLE_LINE1":"1 53423U 22097AM  23176.44182941  .00000366  00000-0  41080-4 0  9991","EPHEMERIS_TYPE":"0","MEAN_MOTION":"15.08848820","ECCENTRICITY":"0.00010020","SITE":"AFETR","COUNTRY_CODE":"US","PERIOD":"95.437","MEAN_MOTION_DOT":"0.00000366","REF_FRAME":"TEME","CENTER_NAME":"EARTH","APOAPSIS":"540.412","OBJECT_TYPE":"PAYLOAD","TLE_LINE2":"2 53423  53.2159 230.5464 0001002  84.4223 275.6883 15.08848820 48975","MEAN_ELEMENT_THEORY":"SGP4","EPOCH":"2023-06-25T10:36:14.061024","REV_AT_EPOCH":"4897","OBJECT_NAME":"STARLINK-4539","BSTAR":"0.00004108000000","INCLINATION":"53.2159","CLASSIFICATION_TYPE":"U","RCS_SIZE":"LARGE"}];
